{"type": "FeatureCollection", "features": [ {"type": "Feature", "properties": {"norad_id": 66052, "name": "HRC MONOBLOCK CAMERA", "group": "stations", "lat": -33.135834752619836, "lon": 112.44422383941858, "alt_km": 410.3140969699607, "timestamp": "2025-12-12T07:43:19.278701+00:00", "meta": {"OBJECT_NAME": "HRC MONOBLOCK CAMERA", "OBJECT_ID": "1998-067XR", "EPOCH": "2025-12-11T22:39:06.959520", "MEAN_MOTION": 15.54045503, "ECCENTRICITY": 0.00034494, "INCLINATION": 51.6287, "RA_OF_ASC_NODE": 145.4758, "ARG_OF_PERICENTER": 180.1091, "MEAN_ANOMALY": 179.9899, "EPHEMERIS_TYPE": 0, "CLASSIFICATION_TYPE": "U", "NORAD_CAT_ID": 66052, "ELEMENT_SET_NO": 999, "REV_AT_EPOCH": 871, "BSTAR": 0.00072087374, "MEAN_MOTION_DOT": 0.00047388, "MEAN_MOTION_DDOT": 0}, "tle": {"line1": "1 66052U 98067XR  25345.94383055  .00047388  00000+0  72087-3 0  9991", "line2": "2 66052  51.6287 145.4758 0003449 180.1091 179.9899 15.54045503  8714"}}, "geometry": {"type": "Point", "coordinates": [112.44422383941858, -33.135834752619836]}}, {"type": "Feature", "properties": {"norad_id": 66174, "name": "HTV-X1", "group": "stations", "lat": -27.271231872075475, "lon": -11.34585912843328, "alt_km": 419.5149011952035, "timestamp": "2025-12-12T07:43:19.278720+00:00", "meta": {"OBJECT_NAME": "HTV-X1", "OBJECT_ID": "2025-241A", "EPOCH": "2025-12-11T21:30:28.324224", "MEAN_MOTION": 15.49521399, "ECCENTRICITY": 0.00032978, "INCLINATION": 51.6307, "RA_OF_ASC_NODE": 146.6565, "ARG_OF_PERICENTER": 237.1442, "MEAN_ANOMALY": 122.9229, "EPHEMERIS_TYPE": 0, "CLASSIFICATION_TYPE": "U", "NORAD_CAT_ID": 66174, "ELEMENT_SET_NO": 999, "REV_AT_EPOCH": 51, "BSTAR": 0.00026380738, "MEAN_MOTION_DOT": 0.00014378, "MEAN_MOTION_DDOT": 0}, "tle": {"line1": "1 66174U 25241A   25345.89616116  .00014378  00000+0  26381-3 0  9990", "line2": "2 66174  51.6307 146.6565 0003297 237.1442 122.9229 15.49521399   516"}}, "geometry": {"type": "Point", "coordinates": [-11.34585912843328, -27.271231872075475]}}, {"type": "Feature", "properties": {"norad_id": 66515, "name": "SZ-21 MODULE", "group": "stations", "lat": -22.40402728415361, "lon": -133.58716589927192, "alt_km": 379.5020239235346, "timestamp": "2025-12-12T07:43:19.278742+00:00", "meta": {"OBJECT_NAME": "SZ-21 MODULE", "OBJECT_ID": "2025-246C", "EPOCH": "2025-12-11T12:23:47.617440", "MEAN_MOTION": 15.62393058, "ECCENTRICITY": 0.00063024, "INCLINATION": 41.4773, "RA_OF_ASC_NODE": 23.5075, "ARG_OF_PERICENTER": 253.7333, "MEAN_ANOMALY": 106.2813, "EPHEMERIS_TYPE": 0, "CLASSIFICATION_TYPE": "U", "NORAD_CAT_ID": 66515, "ELEMENT_SET_NO": 999, "REV_AT_EPOCH": 425, "BSTAR": 0.00046258705, "MEAN_MOTION_DOT": 0.00042118, "MEAN_MOTION_DDOT": 0}, "tle": {"line1": "1 66515U 25246C   25345.51652335  .00042118  00000+0  46259-3 0  9995", "line2": "2 66515  41.4773  23.5075 0006302 253.7333 106.2813 15.62393058  4254"}}, "geometry": {"type": "Point", "coordinates": [-133.58716589927192, -22.40402728415361]}}, {"type": "Feature", "properties": {"norad_id": 66645, "name": "SHENZHOU-22", "group": "stations", "lat": -29.647092400495175, "lon": -20.884127879150544, "alt_km": 391.0844335389429, "timestamp": "2025-12-12T07:43:19.278757+00:00", "meta": {"OBJECT_NAME": "SHENZHOU-22", "OBJECT_ID": "2025-272A", "EPOCH": "2025-12-11T19:37:47.505216", "MEAN_MOTION": 15.59116827, "ECCENTRICITY": 0.00085427, "INCLINATION": 41.4685, "RA_OF_ASC_NODE": 22.304, "ARG_OF_PERICENTER": 22.5495, "MEAN_ANOMALY": 337.5718, "EPHEMERIS_TYPE": 0, "CLASSIFICATION_TYPE": "U", "NORAD_CAT_ID": 66645, "ELEMENT_SET_NO": 999, "REV_AT_EPOCH": 26357, "BSTAR": 0.00035527983, "MEAN_MOTION_DOT": 0.00028382, "MEAN_MOTION_DDOT": 0}, "tle": {"line1": "1 66645U 25272A   25345.81791094  .00028382  00000+0  35528-3 0  9991", "line2": "2 66645  41.4685  22.3040 0008542  22.5495 337.5718 15.59116827263576"}}, "geometry": {"type": "Point", "coordinates": [-20.884127879150544, -29.647092400495175]}}, {"type": "Feature", "properties": {"norad_id": 66664, "name": "SOYUZ-MS 28", "group": "stations", "lat": -27.271234043793815, "lon": -11.345856745194407, "alt_km": 419.5149013008722, "timestamp": "2025-12-12T07:43:19.278767+00:00", "meta": {"OBJECT_NAME": "SOYUZ-MS 28", "OBJECT_ID": "2025-275A", "EPOCH": "2025-12-11T21:30:28.324224", "MEAN_MOTION": 15.49521399, "ECCENTRICITY": 0.00032978, "INCLINATION": 51.6307, "RA_OF_ASC_NODE": 146.6565, "ARG_OF_PERICENTER": 237.1442, "MEAN_ANOMALY": 122.9229, "EPHEMERIS_TYPE": 0, "CLASSIFICATION_TYPE": "U", "NORAD_CAT_ID": 66664, "ELEMENT_SET_NO": 999, "REV_AT_EPOCH": 128, "BSTAR": 0.00026380738, "MEAN_MOTION_DOT": 0.00014378, "MEAN_MOTION_DDOT": 0}, "tle": {"line1": "1 66664U 25275A   25345.89616116  .00014378  00000+0  26381-3 0  9991", "line2": "2 66664  51.6307 146.6565 0003297 237.1442 122.9229 15.49521399  1285"}}, "geometry": {"type": "Point", "coordinates": [-11.345856745194407, -27.271234043793815]}}, {"type": "Feature", "properties": {"norad_id": 66906, "name": "1998-067XS", "group": "stations", "lat": -44.67138287301462, "lon": 16.051544916662554, "alt_km": 417.776722513865, "timestamp": "2025-12-12T07:43:19.278778+00:00", "meta": {"OBJECT_NAME": "1998-067XS", "OBJECT_ID": "1998-067XS", "EPOCH": "2025-12-11T19:50:50.396352", "MEAN_MOTION": 15.50491702, "ECCENTRICITY": 0.00036759, "INCLINATION": 51.6297, "RA_OF_ASC_NODE": 146.9447, "ARG_OF_PERICENTER": 198.3211, "MEAN_ANOMALY": 161.7647, "EPHEMERIS_TYPE": 0, "CLASSIFICATION_TYPE": "U", "NORAD_CAT_ID": 66906, "ELEMENT_SET_NO": 999, "REV_AT_EPOCH": 147, "BSTAR": 0.00060264305, "MEAN_MOTION_DOT": 0.00034698, "MEAN_MOTION_DDOT": 0}, "tle": {"line1": "1 66906U 98067XS  25345.82697218  .00034698  00000+0  60264-3 0  9999", "line2": "2 66906  51.6297 146.9447 0003675 198.3211 161.7647 15.50491702  1478"}}, "geometry": {"type": "Point", "coordinates": [16.051544916662554, -44.67138287301462]}}, {"type": "Feature", "properties": {"norad_id": 66907, "name": "1998-067XT", "group": "stations", "lat": -49.88514083911231, "lon": 34.571963637426634, "alt_km": 414.95162096699914, "timestamp": "2025-12-12T07:43:19.278788+00:00", "meta": {"OBJECT_NAME": "1998-067XT", "OBJECT_ID": "1998-067XT", "EPOCH": "2025-12-09T12:07:37.114752", "MEAN_MOTION": 15.50864429, "ECCENTRICITY": 0.00048036, "INCLINATION": 51.6307, "RA_OF_ASC_NODE": 158.4423, "ARG_OF_PERICENTER": 208.5081, "MEAN_ANOMALY": 151.5646, "EPHEMERIS_TYPE": 0, "CLASSIFICATION_TYPE": "U", "NORAD_CAT_ID": 66907, "ELEMENT_SET_NO": 999, "REV_AT_EPOCH": 111, "BSTAR": 0.0012921241, "MEAN_MOTION_DOT": 0.00076342, "MEAN_MOTION_DDOT": 0}, "tle": {"line1": "1 66907U 98067XT  25343.50529068  .00076342  00000+0  12921-2 0  9998", "line2": "2 66907  51.6307 158.4423 0004803 208.5081 151.5646 15.50864429  1113"}}, "geometry": {"type": "Point", "coordinates": [34.571963637426634, -49.88514083911231]}}, {"type": "Feature", "properties": {"norad_id": 66908, "name": "1998-067XU", "group": "stations", "lat": -50.384404795581986, "lon": 37.634927788116485, "alt_km": 414.60966431241013, "timestamp": "2025-12-12T07:43:19.278799+00:00", "meta": {"OBJECT_NAME": "1998-067XU", "OBJECT_ID": "1998-067XU", "EPOCH": "2025-12-11T19:47:12.664032", "MEAN_MOTION": 15.51346926, "ECCENTRICITY": 0.00046963, "INCLINATION": 51.6299, "RA_OF_ASC_NODE": 146.928, "ARG_OF_PERICENTER": 220.0254, "MEAN_ANOMALY": 140.039, "EPHEMERIS_TYPE": 0, "CLASSIFICATION_TYPE": "U", "NORAD_CAT_ID": 66908, "ELEMENT_SET_NO": 999, "REV_AT_EPOCH": 147, "BSTAR": 0.0013269788, "MEAN_MOTION_DOT": 0.00079814, "MEAN_MOTION_DDOT": 0}, "tle": {"line1": "1 66908U 98067XU  25345.82445213  .00079814  00000+0  13270-2 0  9990", "line2": "2 66908  51.6299 146.9280 0004696 220.0254 140.0390 15.51346926  1474"}}, "geometry": {"type": "Point", "coordinates": [37.634927788116485, -50.384404795581986]}}, {"type": "Feature", "properties": {"norad_id": 66909, "name": "SILVERSAT", "group": "stations", "lat": -50.77848465730408, "lon": 40.5539489042796, "alt_km": 414.3829733723078, "timestamp": "2025-12-12T07:43:19.278809+00:00", "meta": {"OBJECT_NAME": "SILVERSAT", "OBJECT_ID": "1998-067XV", "EPOCH": "2025-12-11T19:46:46.158240", "MEAN_MOTION": 15.51450033, "ECCENTRICITY": 0.00045562, "INCLINATION": 51.63, "RA_OF_ASC_NODE": 146.926, "ARG_OF_PERICENTER": 222.0234, "MEAN_ANOMALY": 138.0406, "EPHEMERIS_TYPE": 0, "CLASSIFICATION_TYPE": "U", "NORAD_CAT_ID": 66909, "ELEMENT_SET_NO": 999, "REV_AT_EPOCH": 147, "BSTAR": 0.0013718352, "MEAN_MOTION_DOT": 0.00082864, "MEAN_MOTION_DDOT": 0}, "tle": {"line1": "1 66909U 98067XV  25345.82414535  .00082864  00000+0  13718-2 0  9990", "line2": "2 66909  51.6300 146.9260 0004556 222.0234 138.0406 15.51450033  1471"}}, "geometry": {"type": "Point", "coordinates": [40.5539489042796, -50.77848465730408]}}, {"type": "Feature", "properties": {"norad_id": 66910, "name": "1998-067XW", "group": "stations", "lat": -51.60620210931464, "lon": 53.47607810762502, "alt_km": 414.90051531386416, "timestamp": "2025-12-12T07:43:19.278819+00:00", "meta": {"OBJECT_NAME": "1998-067XW", "OBJECT_ID": "1998-067XW", "EPOCH": "2025-12-11T19:44:44.282400", "MEAN_MOTION": 15.51588385, "ECCENTRICITY": 0.0005376, "INCLINATION": 51.6301, "RA_OF_ASC_NODE": 146.917, "ARG_OF_PERICENTER": 203.4285, "MEAN_ANOMALY": 156.646, "EPHEMERIS_TYPE": 0, "CLASSIFICATION_TYPE": "U", "NORAD_CAT_ID": 66910, "ELEMENT_SET_NO": 999, "REV_AT_EPOCH": 147, "BSTAR": 0.0011426696, "MEAN_MOTION_DOT": 0.00069176, "MEAN_MOTION_DDOT": 0}, "tle": {"line1": "1 66910U 98067XW  25345.82273475  .00069176  00000+0  11427-2 0  9994", "line2": "2 66910  51.6301 146.9170 0005376 203.4285 156.6460 15.51588385  1472"}}, "geometry": {"type": "Point", "coordinates": [53.47607810762502, -51.60620210931464]}}]}